ZHONGXING-2A            
1 38352U 12028A   26114.81761340 -.00000305  00000+0  00000+0 0  9995
2 38352   1.3174  84.5163 0001525  20.4336 140.4515  1.00268081 50761
INTELSAT 19 (IS-19)     
1 38356U 12030A   26115.87683597 -.00000070  00000+0  00000+0 0  9995
2 38356   0.0370  80.7389 0002896 313.7431 301.0709  1.00272058 49928
ECHOSTAR 17             
1 38551U 12035A   26115.90237280  .00000000  00000+0  00000+0 0  9997
2 38551   0.0137 218.6341 0002178 182.5384  30.4967  1.00269589 50531
METEOSAT-10 (MSG-3)     
1 38552U 12035B   26115.70968660 -.00000017  00000+0  00000+0 0  9998
2 38552   4.5500  61.2406 0002075 310.7742  97.3874  1.00267683 50338
SES-5                   
1 38652U 12036A   26115.92455955  .00000020  00000+0  00000+0 0  9995
2 38652   0.0594 300.5640 0001886  89.0990 162.0897  1.00272343 43934
INTELSAT 20 (IS-20)     
1 38740U 12043A   26115.92895189 -.00000037  00000+0  00000+0 0  9997
2 38740   0.0167 164.4319 0002176   9.2299  83.1973  1.00269064 50221
HYLAS 2                 
1 38741U 12043B   26115.86780985 -.00000269  00000+0  00000+0 0  9995
2 38741   2.2942  81.6734 0002619 334.8048  37.2581  1.00271943 50256
INTELSAT 21 (IS-21)     
1 38749U 12045A   26115.87336475 -.00000298  00000+0  00000+0 0  9999
2 38749   0.0563  77.9509 0002016 327.1216  65.2188  1.00271236 50002
ASTRA 2F                
1 38778U 12051A   26115.85791260  .00000136  00000+0  00000+0 0  9993
2 38778   0.0381 250.7966 0000576  20.5067 279.6141  1.00271286 40618
GSAT-10                 
1 38779U 12051B   26115.93586689 -.00000178  00000+0  00000+0 0  9997
2 38779   0.0255 263.7604 0006893 177.7644 192.3039  1.00270066 49572
INTELSAT 23 (IS-23)     
1 38867U 12057A   26115.91311951 -.00000298  00000+0  00000+0 0  9990
2 38867   0.0170 265.8697 0000103 180.6944  43.0473  1.00267824 49432
BEIDOU-2 G6             
1 38953U 12059A   26115.94015962 -.00000185  00000+0  00000+0 0  9999
2 38953   4.2914  74.0622 0010535 313.7824 248.5030  1.00274599 49386
LUCH-5B                 
1 38977U 12061A   26115.63512328 -.00000146  00000+0  00000+0 0  9999
2 38977  10.3736  50.3947 0001856 213.6172 162.0087  1.00271530 49080
YAMAL 300K              
1 38978U 12061B   26115.31808587  .00000057  00000+0  00000+0 0  9990
2 38978   0.0051 194.3043 0000422  81.8805 234.6094  1.00270546 49102
STAR ONE C3             
1 38991U 12062A   26115.86780985 -.00000262  00000+0  00000+0 0  9996
2 38991   0.0038  58.1172 0002522 355.6661  37.5016  1.00270313 49237
EUTELSAT 21B            
1 38992U 12062B   26115.96175205  .00000116  00000+0  00000+0 0  9998
2 38992   0.0707 355.8008 0002932  38.4701 187.5346  1.00270059 49309
ECHOSTAR 16             
1 39008U 12065A   26115.87336475 -.00000295  00000+0  00000+0 0  9997
2 39008   0.0170 211.5290 0002045 187.6195  67.6416  1.00271019 49125
