[{"OBJECT_NAME":"ZHONGXING-2A","OBJECT_ID":"2012-028A","EPOCH":"2026-04-24T19:37:21.797760","MEAN_MOTION":1.00268081,"ECCENTRICITY":0.0001525,"INCLINATION":1.3174,"RA_OF_ASC_NODE":84.5163,"ARG_OF_PERICENTER":20.4336,"MEAN_ANOMALY":140.4515,"EPHEMERIS_TYPE":0,"CLASSIFICATION_TYPE":"U","NORAD_CAT_ID":38352,"ELEMENT_SET_NO":999,"REV_AT_EPOCH":5076,"BSTAR":0,"MEAN_MOTION_DOT":-3.05e-6,"MEAN_MOTION_DDOT":0},{"OBJECT_NAME":"INTELSAT 19 (IS-19)","OBJECT_ID":"2012-030A","EPOCH":"2026-04-25T21:02:38.627808","MEAN_MOTION":1.00272058,"ECCENTRICITY":0.00028965,"INCLINATION":0.037,"RA_OF_ASC_NODE":80.7389,"ARG_OF_PERICENTER":313.7431,"MEAN_ANOMALY":301.0709,"EPHEMERIS_TYPE":0,"CLASSIFICATION_TYPE":"U","NORAD_CAT_ID":38356,"ELEMENT_SET_NO":999,"REV_AT_EPOCH":4992,"BSTAR":0,"MEAN_MOTION_DOT":-7.0e-7,"MEAN_MOTION_DDOT":0},{"OBJECT_NAME":"ECHOSTAR 17","OBJECT_ID":"2012-035A","EPOCH":"2026-04-25T21:39:25.009920","MEAN_MOTION":1.00269589,"ECCENTRICITY":0.00021787,"INCLINATION":0.0137,"RA_OF_ASC_NODE":218.6341,"ARG_OF_PERICENTER":182.5384,"MEAN_ANOMALY":30.4967,"EPHEMERIS_TYPE":0,"CLASSIFICATION_TYPE":"U","NORAD_CAT_ID":38551,"ELEMENT_SET_NO":999,"REV_AT_EPOCH":5053,"BSTAR":0,"MEAN_MOTION_DOT":0,"MEAN_MOTION_DDOT":0},{"OBJECT_NAME":"METEOSAT-10 (MSG-3)","OBJECT_ID":"2012-035B","EPOCH":"2026-04-25T17:01:56.922240","MEAN_MOTION":1.00267683,"ECCENTRICITY":0.00020756,"INCLINATION":4.55,"RA_OF_ASC_NODE":61.2406,"ARG_OF_PERICENTER":310.7742,"MEAN_ANOMALY":97.3874,"EPHEMERIS_TYPE":0,"CLASSIFICATION_TYPE":"U","NORAD_CAT_ID":38552,"ELEMENT_SET_NO":999,"REV_AT_EPOCH":5033,"BSTAR":0,"MEAN_MOTION_DOT":-1.7e-7,"MEAN_MOTION_DDOT":0},{"OBJECT_NAME":"SES-5","OBJECT_ID":"2012-036A","EPOCH":"2026-04-25T22:11:21.945120","MEAN_MOTION":1.00272343,"ECCENTRICITY":0.00018863,"INCLINATION":0.0594,"RA_OF_ASC_NODE":300.564,"ARG_OF_PERICENTER":89.099,"MEAN_ANOMALY":162.0897,"EPHEMERIS_TYPE":0,"CLASSIFICATION_TYPE":"U","NORAD_CAT_ID":38652,"ELEMENT_SET_NO":999,"REV_AT_EPOCH":4393,"BSTAR":0,"MEAN_MOTION_DOT":2.0e-7,"MEAN_MOTION_DDOT":0},{"OBJECT_NAME":"INTELSAT 20 (IS-20)","OBJECT_ID":"2012-043A","EPOCH":"2026-04-25T22:17:41.443296","MEAN_MOTION":1.00269064,"ECCENTRICITY":0.00021763,"INCLINATION":0.0167,"RA_OF_ASC_NODE":164.4319,"ARG_OF_PERICENTER":9.2299,"MEAN_ANOMALY":83.1973,"EPHEMERIS_TYPE":0,"CLASSIFICATION_TYPE":"U","NORAD_CAT_ID":38740,"ELEMENT_SET_NO":999,"REV_AT_EPOCH":5022,"BSTAR":0,"MEAN_MOTION_DOT":-3.7e-7,"MEAN_MOTION_DDOT":0},{"OBJECT_NAME":"HYLAS 2","OBJECT_ID":"2012-043B","EPOCH":"2026-04-25T20:49:38.771040","MEAN_MOTION":1.00271943,"ECCENTRICITY":0.00026191,"INCLINATION":2.2942,"RA_OF_ASC_NODE":81.6734,"ARG_OF_PERICENTER":334.8048,"MEAN_ANOMALY":37.2581,"EPHEMERIS_TYPE":0,"CLASSIFICATION_TYPE":"U","NORAD_CAT_ID":38741,"ELEMENT_SET_NO":999,"REV_AT_EPOCH":5025,"BSTAR":0,"MEAN_MOTION_DOT":-2.69e-6,"MEAN_MOTION_DDOT":0},{"OBJECT_NAME":"INTELSAT 21 (IS-21)","OBJECT_ID":"2012-045A","EPOCH":"2026-04-25T20:57:38.714400","MEAN_MOTION":1.00271236,"ECCENTRICITY":0.00020166,"INCLINATION":0.0563,"RA_OF_ASC_NODE":77.9509,"ARG_OF_PERICENTER":327.1216,"MEAN_ANOMALY":65.2188,"EPHEMERIS_TYPE":0,"CLASSIFICATION_TYPE":"U","NORAD_CAT_ID":38749,"ELEMENT_SET_NO":999,"REV_AT_EPOCH":5000,"BSTAR":0,"MEAN_MOTION_DOT":-2.98e-6,"MEAN_MOTION_DDOT":0},{"OBJECT_NAME":"ASTRA 2F","OBJECT_ID":"2012-051A","EPOCH":"2026-04-25T20:35:23.648640","MEAN_MOTION":1.00271286,"ECCENTRICITY":5.762e-5,"INCLINATION":0.0381,"RA_OF_ASC_NODE":250.7966,"ARG_OF_PERICENTER":20.5067,"MEAN_ANOMALY":279.6141,"EPHEMERIS_TYPE":0,"CLASSIFICATION_TYPE":"U","NORAD_CAT_ID":38778,"ELEMENT_SET_NO":999,"REV_AT_EPOCH":4061,"BSTAR":0,"MEAN_MOTION_DOT":1.36e-6,"MEAN_MOTION_DDOT":0},{"OBJECT_NAME":"GSAT-10","OBJECT_ID":"2012-051B","EPOCH":"2026-04-25T22:27:38.899296","MEAN_MOTION":1.00270066,"ECCENTRICITY":0.00068933,"INCLINATION":0.0255,"RA_OF_ASC_NODE":263.7604,"ARG_OF_PERICENTER":177.7644,"MEAN_ANOMALY":192.3039,"EPHEMERIS_TYPE":0,"CLASSIFICATION_TYPE":"U","NORAD_CAT_ID":38779,"ELEMENT_SET_NO":999,"REV_AT_EPOCH":4957,"BSTAR":0,"MEAN_MOTION_DOT":-1.78e-6,"MEAN_MOTION_DDOT":0},{"OBJECT_NAME":"INTELSAT 23 (IS-23)","OBJECT_ID":"2012-057A","EPOCH":"2026-04-25T21:54:53.525664","MEAN_MOTION":1.00267824,"ECCENTRICITY":1.039e-5,"INCLINATION":0.017,"RA_OF_ASC_NODE":265.8697,"ARG_OF_PERICENTER":180.6944,"MEAN_ANOMALY":43.0473,"EPHEMERIS_TYPE":0,"CLASSIFICATION_TYPE":"U","NORAD_CAT_ID":38867,"ELEMENT_SET_NO":999,"REV_AT_EPOCH":4943,"BSTAR":0,"MEAN_MOTION_DOT":-2.98e-6,"MEAN_MOTION_DDOT":0},{"OBJECT_NAME":"BEIDOU-2 G6","OBJECT_ID":"2012-059A","EPOCH":"2026-04-25T22:33:49.791168","MEAN_MOTION":1.00274599,"ECCENTRICITY":0.00105355,"INCLINATION":4.2914,"RA_OF_ASC_NODE":74.0622,"ARG_OF_PERICENTER":313.7824,"MEAN_ANOMALY":248.503,"EPHEMERIS_TYPE":0,"CLASSIFICATION_TYPE":"U","NORAD_CAT_ID":38953,"ELEMENT_SET_NO":999,"REV_AT_EPOCH":4938,"BSTAR":0,"MEAN_MOTION_DOT":-1.85e-6,"MEAN_MOTION_DDOT":0},{"OBJECT_NAME":"LUCH-5B","OBJECT_ID":"2012-061A","EPOCH":"2026-04-25T15:14:34.651392","MEAN_MOTION":1.0027153,"ECCENTRICITY":0.00018562,"INCLINATION":10.3736,"RA_OF_ASC_NODE":50.3947,"ARG_OF_PERICENTER":213.6172,"MEAN_ANOMALY":162.0087,"EPHEMERIS_TYPE":0,"CLASSIFICATION_TYPE":"U","NORAD_CAT_ID":38977,"ELEMENT_SET_NO":999,"REV_AT_EPOCH":4908,"BSTAR":0,"MEAN_MOTION_DOT":-1.46e-6,"MEAN_MOTION_DDOT":0},{"OBJECT_NAME":"YAMAL 300K","OBJECT_ID":"2012-061B","EPOCH":"2026-04-25T07:38:02.619168","MEAN_MOTION":1.00270546,"ECCENTRICITY":4.228e-5,"INCLINATION":0.0051,"RA_OF_ASC_NODE":194.3043,"ARG_OF_PERICENTER":81.8805,"MEAN_ANOMALY":234.6094,"EPHEMERIS_TYPE":0,"CLASSIFICATION_TYPE":"U","NORAD_CAT_ID":38978,"ELEMENT_SET_NO":999,"REV_AT_EPOCH":4910,"BSTAR":0,"MEAN_MOTION_DOT":5.7e-7,"MEAN_MOTION_DDOT":0},{"OBJECT_NAME":"STAR ONE C3","OBJECT_ID":"2012-062A","EPOCH":"2026-04-25T20:49:38.771040","MEAN_MOTION":1.00270313,"ECCENTRICITY":0.00025225,"INCLINATION":0.0038,"RA_OF_ASC_NODE":58.1172,"ARG_OF_PERICENTER":355.6661,"MEAN_ANOMALY":37.5016,"EPHEMERIS_TYPE":0,"CLASSIFICATION_TYPE":"U","NORAD_CAT_ID":38991,"ELEMENT_SET_NO":999,"REV_AT_EPOCH":4923,"BSTAR":0,"MEAN_MOTION_DOT":-2.62e-6,"MEAN_MOTION_DDOT":0},{"OBJECT_NAME":"EUTELSAT 21B","OBJECT_ID":"2012-062B","EPOCH":"2026-04-25T23:04:55.377120","MEAN_MOTION":1.00270059,"ECCENTRICITY":0.00029321,"INCLINATION":0.0707,"RA_OF_ASC_NODE":355.8008,"ARG_OF_PERICENTER":38.4701,"MEAN_ANOMALY":187.5346,"EPHEMERIS_TYPE":0,"CLASSIFICATION_TYPE":"U","NORAD_CAT_ID":38992,"ELEMENT_SET_NO":999,"REV_AT_EPOCH":4930,"BSTAR":0,"MEAN_MOTION_DOT":1.16e-6,"MEAN_MOTION_DDOT":0},{"OBJECT_NAME":"ECHOSTAR 16","OBJECT_ID":"2012-065A","EPOCH":"2026-04-25T20:57:38.714400","MEAN_MOTION":1.00271019,"ECCENTRICITY":0.00020459,"INCLINATION":0.017,"RA_OF_ASC_NODE":211.529,"ARG_OF_PERICENTER":187.6195,"MEAN_ANOMALY":67.6416,"EPHEMERIS_TYPE":0,"CLASSIFICATION_TYPE":"U","NORAD_CAT_ID":39008,"ELEMENT_SET_NO":999,"REV_AT_EPOCH":4912,"BSTAR":0,"MEAN_MOTION_DOT":-2.95e-6,"MEAN_MOTION_DDOT":0}]
